[{"OBJECT_NAME":"STARLINK-37150","OBJECT_ID":"2026-057X","EPOCH":"2026-03-26T06:00:02.000160","MEAN_MOTION":16.08887519,"ECCENTRICITY":0.00010986,"INCLINATION":97.2816,"RA_OF_ASC_NODE":208.1348,"ARG_OF_PERICENTER":54.6391,"MEAN_ANOMALY":45.2917,"EPHEMERIS_TYPE":0,"CLASSIFICATION_TYPE":"U","NORAD_CAT_ID":68315,"ELEMENT_SET_NO":999,"REV_AT_EPOCH":192,"BSTAR":-0.001005423,"MEAN_MOTION_DOT":-0.0086656,"MEAN_MOTION_DDOT":0.00027979659},{"OBJECT_NAME":"STARLINK-37154","OBJECT_ID":"2026-057Y","EPOCH":"2026-03-26T06:00:02.000160","MEAN_MOTION":16.0931091,"ECCENTRICITY":0.00011531,"INCLINATION":97.2814,"RA_OF_ASC_NODE":208.1368,"ARG_OF_PERICENTER":55.7084,"MEAN_ANOMALY":48.9359,"EPHEMERIS_TYPE":0,"CLASSIFICATION_TYPE":"U","NORAD_CAT_ID":68316,"ELEMENT_SET_NO":999,"REV_AT_EPOCH":182,"BSTAR":-0.0009621941,"MEAN_MOTION_DOT":-0.00852181,"MEAN_MOTION_DDOT":0.00027275186},{"OBJECT_NAME":"STARLINK-37139","OBJECT_ID":"2026-057Z","EPOCH":"2026-03-26T06:00:02.000160","MEAN_MOTION":16.09171417,"ECCENTRICITY":0.00012095,"INCLINATION":97.2814,"RA_OF_ASC_NODE":208.1361,"ARG_OF_PERICENTER":52.8472,"MEAN_ANOMALY":50.1984,"EPHEMERIS_TYPE":0,"CLASSIFICATION_TYPE":"U","NORAD_CAT_ID":68317,"ELEMENT_SET_NO":999,"REV_AT_EPOCH":167,"BSTAR":-0.00098190354,"MEAN_MOTION_DOT":-0.0086183,"MEAN_MOTION_DDOT":0.00027799518},{"OBJECT_NAME":"STARLINK-37113","OBJECT_ID":"2026-057AA","EPOCH":"2026-03-26T06:00:02.000160","MEAN_MOTION":16.09465467,"ECCENTRICITY":0.00012041,"INCLINATION":97.2815,"RA_OF_ASC_NODE":208.1375,"ARG_OF_PERICENTER":50.793,"MEAN_ANOMALY":55.5155,"EPHEMERIS_TYPE":0,"CLASSIFICATION_TYPE":"U","NORAD_CAT_ID":68318,"ELEMENT_SET_NO":999,"REV_AT_EPOCH":192,"BSTAR":-0.00094326073,"MEAN_MOTION_DOT":-0.00843818,"MEAN_MOTION_DDOT":0.00026835603},{"OBJECT_NAME":"PROGRESS-MS 33","OBJECT_ID":"2026-058A","EPOCH":"2026-03-26T19:25:42.681792","MEAN_MOTION":15.48566257,"ECCENTRICITY":0.0006206,"INCLINATION":51.6341,"RA_OF_ASC_NODE":347.7277,"ARG_OF_PERICENTER":236.0994,"MEAN_ANOMALY":123.9405,"EPHEMERIS_TYPE":0,"CLASSIFICATION_TYPE":"U","NORAD_CAT_ID":68319,"ELEMENT_SET_NO":999,"REV_AT_EPOCH":43,"BSTAR":0.00024531,"MEAN_MOTION_DOT":0.0001289,"MEAN_MOTION_DDOT":0},{"OBJECT_NAME":"CENTISPACE-1 OBJECT B","OBJECT_ID":"2026-060B","EPOCH":"2026-03-26T11:59:46.275360","MEAN_MOTION":14.7492,"ECCENTRICITY":0.0012921,"INCLINATION":54.9834,"RA_OF_ASC_NODE":13.0446,"ARG_OF_PERICENTER":301.6406,"MEAN_ANOMALY":58.3332,"EPHEMERIS_TYPE":0,"CLASSIFICATION_TYPE":"U","NORAD_CAT_ID":68351,"ELEMENT_SET_NO":999,"REV_AT_EPOCH":57,"BSTAR":3.3361e-5,"MEAN_MOTION_DOT":1.6e-7,"MEAN_MOTION_DDOT":0},{"OBJECT_NAME":"CENTISPACE-1 OBJECT C","OBJECT_ID":"2026-060C","EPOCH":"2026-03-26T20:06:59.126976","MEAN_MOTION":14.75105048,"ECCENTRICITY":0.0012382,"INCLINATION":54.9837,"RA_OF_ASC_NODE":11.6599,"ARG_OF_PERICENTER":308.8925,"MEAN_ANOMALY":51.097,"EPHEMERIS_TYPE":0,"CLASSIFICATION_TYPE":"U","NORAD_CAT_ID":68352,"ELEMENT_SET_NO":999,"REV_AT_EPOCH":62,"BSTAR":3.2171e-5,"MEAN_MOTION_DOT":9.0e-8,"MEAN_MOTION_DDOT":0},{"OBJECT_NAME":"CENTISPACE-1 OBJECT D","OBJECT_ID":"2026-060D","EPOCH":"2026-03-26T10:21:21.127392","MEAN_MOTION":14.75149249,"ECCENTRICITY":0.0012286,"INCLINATION":54.9857,"RA_OF_ASC_NODE":13.3236,"ARG_OF_PERICENTER":307.6948,"MEAN_ANOMALY":52.2937,"EPHEMERIS_TYPE":0,"CLASSIFICATION_TYPE":"U","NORAD_CAT_ID":68353,"ELEMENT_SET_NO":999,"REV_AT_EPOCH":56,"BSTAR":3.3684e-5,"MEAN_MOTION_DOT":2.0e-7,"MEAN_MOTION_DDOT":0},{"OBJECT_NAME":"CENTISPACE-1 OBJECT E","OBJECT_ID":"2026-060E","EPOCH":"2026-03-26T10:21:08.227008","MEAN_MOTION":14.75205506,"ECCENTRICITY":0.0012807,"INCLINATION":54.9769,"RA_OF_ASC_NODE":13.3233,"ARG_OF_PERICENTER":307.124,"MEAN_ANOMALY":52.8588,"EPHEMERIS_TYPE":0,"CLASSIFICATION_TYPE":"U","NORAD_CAT_ID":68354,"ELEMENT_SET_NO":999,"REV_AT_EPOCH":56,"BSTAR":3.3712e-5,"MEAN_MOTION_DOT":2.0e-7,"MEAN_MOTION_DDOT":0},{"OBJECT_NAME":"CENTISPACE-1 OBJECT F","OBJECT_ID":"2026-060F","EPOCH":"2026-03-26T07:05:54.064896","MEAN_MOTION":14.75232431,"ECCENTRICITY":0.0013551,"INCLINATION":54.9787,"RA_OF_ASC_NODE":13.8696,"ARG_OF_PERICENTER":307.0302,"MEAN_ANOMALY":52.9458,"EPHEMERIS_TYPE":0,"CLASSIFICATION_TYPE":"U","NORAD_CAT_ID":68355,"ELEMENT_SET_NO":999,"REV_AT_EPOCH":54,"BSTAR":3.4213e-5,"MEAN_MOTION_DOT":2.3e-7,"MEAN_MOTION_DDOT":0},{"OBJECT_NAME":"CENTISPACE-1 OBJECT G","OBJECT_ID":"2026-060G","EPOCH":"2026-03-26T18:28:33.927168","MEAN_MOTION":14.75314257,"ECCENTRICITY":0.0013664,"INCLINATION":54.9889,"RA_OF_ASC_NODE":11.9346,"ARG_OF_PERICENTER":309.5842,"MEAN_ANOMALY":50.395,"EPHEMERIS_TYPE":0,"CLASSIFICATION_TYPE":"U","NORAD_CAT_ID":68356,"ELEMENT_SET_NO":999,"REV_AT_EPOCH":61,"BSTAR":3.2736e-5,"MEAN_MOTION_DOT":1.3e-7,"MEAN_MOTION_DDOT":0}]
